CAS500-2 RIDESHARE OBJE*
1 69000U 26100W   26129.83337963 -.00062034  00000+0 -61943-2 0  9997
2 69000  97.6928  27.0100 0002744 144.9322 179.7871 14.91857949  1301
