{
  "norad_id": 69000,
  "name": "CAS500-2 RIDESHARE OBJECT W",
  "history": [
    {
      "epoch": "2026-05-09T20:00:04.000032Z",
      "apogee_km": 594.0551404330827,
      "perigee_km": 590.2298510458222,
      "latitude_deg": -35.18536536876645,
      "longitude_deg": -135.21690933924344,
      "height_km": 607.4186991248773,
      "semi_major_axis_km": 6970.279495739453,
      "eccentricity": 0.0002744,
      "inclination_deg": 97.6928,
      "raan_deg": 27.01,
      "arg_perigee_deg": 144.9322,
      "mean_anomaly_deg": 179.7871,
      "mean_motion_rev_day": 14.91857949
    }
  ]
}